NORAD_CAT_ID,OBJECT_NAME,OBJECT_TYPE,EPOCH,MEAN_MOTION,ECCENTRICITY,INCLINATION,RA_OF_ASC_NODE,ARG_OF_PERICENTER,MEAN_ANOMALY,BSTAR,MEAN_MOTION_DOT,MEAN_MOTION_DDOT,TLE_LINE0,TLE_LINE1,TLE_LINE2,SEMIMAJOR_AXIS,PERIOD,APOGEE,PERIGEE,DECAYED
49413.0,STARLINK-3157,PAYLOAD,2023-12-25 21:26:17,15.08840712,0.000145,53.2155,232.0062,90.1483,269.9675,-2.3555e-05,-6.63e-06,0.0,0 STARLINK-3157,1 49413U 21104F   23359.89325813 -.00000663  00000-0 -23555-4 0  9991,2 49413  53.2155 232.0062 0001450  90.1483 269.9675 15.08840712117272,6917.878,95.438,540.746,538.74,0.0
49413.0,STARLINK-3157,PAYLOAD,2023-12-26 14:55:32,15.08838534,0.0001625,53.2166,228.7347,100.9471,259.1704,0.00010131,1.325e-05,0.0,0 STARLINK-3157,1 49413U 21104F   23360.62190064  .00001325  00000-0  10131-3 0  9991,2 49413  53.2166 228.7347 0001625 100.9471 259.1704 15.08838534117388,6917.885,95.438,540.874,538.626,0.0
49413.0,STARLINK-3157,PAYLOAD,2023-12-26 19:41:42,15.08820201,0.0001781,53.2172,227.8415,99.2011,260.9183,0.00032874,4.945e-05,0.0,0 STARLINK-3157,1 49413U 21104F   23360.82062697  .00004945  00000-0  32874-3 0  9992,2 49413  53.2172 227.8415 0001781  99.2011 260.9183 15.08820201118502,6917.941,95.439,541.038,538.574,0.0
49413.0,STARLINK-3157,PAYLOAD,2023-12-26 21:17:05,15.08797418,0.0001909,53.217,227.5441,96.6054,263.5155,0.00066627,0.00010319,0.0,0 STARLINK-3157,1 49413U 21104F   23360.88687364  .00010319  00000-0  66627-3 0  9997,2 49413  53.2170 227.5441 0001909  96.6054 263.5155 15.08797418117427,6918.011,95.44,541.196,538.555,0.0
49413.0,STARLINK-3157,PAYLOAD,2023-12-27 00:27:51,15.08841155,0.000164,53.216,226.9483,97.1528,262.9651,6.425e-05,7.35e-06,0.0,0 STARLINK-3157,1 49413U 21104F   23361.01934035  .00000735  00000-0  64250-4 0  9995,2 49413  53.2160 226.9483 0001640  97.1528 262.9651 15.08841155118534,6917.877,95.437,540.876,538.607,0.0
49413.0,STARLINK-3157,PAYLOAD,2023-12-27 21:07:51,15.08844165,0.0001406,53.2152,223.0821,108.4731,251.6414,4.3122e-05,3.98e-06,0.0,0 STARLINK-3157,1 49413U 21104F   23361.88045901  .00000398  00000-0  43122-4 0  9995,2 49413  53.2152 223.0821 0001406 108.4731 251.6414 15.08844165117570,6917.868,95.437,540.705,538.76,0.0
49413.0,STARLINK-3157,PAYLOAD,2023-12-28 00:18:38,15.0880345,0.0001637,53.2156,222.4873,101.0996,259.018,0.00070031,0.00010864,0.0,0 STARLINK-3157,1 49413U 21104F   23362.01294828  .00010864  00000-0  70031-3 0  9992,2 49413  53.2156 222.4873 0001637 101.0996 259.0180 15.08803450118689,6917.992,95.44,540.99,538.725,0.0
49413.0,STARLINK-3157,PAYLOAD,2023-12-28 14:37:06,15.08837213,0.000149,53.2154,219.811,87.7125,272.4038,4.0078e-05,3.5e-06,0.0,0 STARLINK-3157,1 49413U 21104F   23362.60910456  .00000350  00000-0  40078-4 0  9997,2 49413  53.2154 219.8110 0001490  87.7125 272.4038 15.08837213117686,6917.889,95.438,540.785,538.723,0.0
49413.0,STARLINK-3157,PAYLOAD,2023-12-28 19:23:15,15.08838361,0.0001489,53.2154,218.9192,87.3252,272.791,4.848e-05,4.84e-06,0.0,0 STARLINK-3157,1 49413U 21104F   23362.80782363  .00000484  00000-0  48480-4 0  9996,2 49413  53.2154 218.9192 0001489  87.3252 272.7910 15.08838361118803,6917.885,95.438,540.78,538.72,0.0
49413.0,STARLINK-3157,PAYLOAD,2023-12-28 20:58:39,15.08838292,0.0001499,53.2154,218.6219,86.7565,273.3598,4.366e-05,4.07e-06,0.0,0 STARLINK-3157,1 49413U 21104F   23362.87406328  .00000407  00000-0  43660-4 0  9997,2 49413  53.2154 218.6219 0001499  86.7565 273.3598 15.08838292117723,6917.886,95.438,540.788,538.714,0.0
49413.0,STARLINK-3157,PAYLOAD,2023-12-29 00:09:25,15.08840783,0.000149,53.2154,218.0266,89.0371,271.0792,5.4644e-05,5.82e-06,0.0,0 STARLINK-3157,1 49413U 21104F   23363.00654114  .00000582  00000-0  54644-4 0  9999,2 49413  53.2154 218.0266 0001490  89.0371 271.0792 15.08840783117742,6917.878,95.438,540.774,538.712,0.0
49413.0,STARLINK-3157,PAYLOAD,2023-12-29 19:14:02,15.08845417,0.0001515,53.2153,214.4573,104.3856,255.7304,5.9564e-05,6.6e-06,0.0,0 STARLINK-3157,1 49413U 21104F   23363.80141656  .00000660  00000-0  59564-4 0  9992,2 49413  53.2153 214.4573 0001515 104.3856 255.7304 15.08845417118950,6917.864,95.437,540.777,538.681,0.0
49413.0,STARLINK-3157,PAYLOAD,2023-12-29 20:49:25,15.08845233,0.0001506,53.2154,214.16,103.4948,256.6212,5.5016e-05,5.88e-06,0.0,0 STARLINK-3157,1 49413U 21104F   23363.86765634  .00000588  00000-0  55016-4 0  9993,2 49413  53.2154 214.1600 0001506 103.4948 256.6212 15.08845233117875,6917.864,95.437,540.771,538.688,0.0
49413.0,STARLINK-3157,PAYLOAD,2023-12-30 14:18:40,15.08839114,0.0001537,53.2159,210.8898,91.9217,268.1951,3.5719e-05,2.81e-06,0.0,0 STARLINK-3157,1 49413U 21104F   23364.59630178  .00000281  00000-0  35719-4 0  9996,2 49413  53.2159 210.8898 0001537  91.9217 268.1951 15.08839114117987,6917.883,95.438,540.811,538.685,0.0
49413.0,STARLINK-3157,PAYLOAD,2023-12-30 19:04:49,15.08837309,0.0001395,53.2152,209.9969,97.6939,262.4211,1.3235e-05,-7.7e-07,0.0,0 STARLINK-3157,1 49413U 21104F   23364.79502289 -.00000077  00000-0  13235-4 0  9992,2 49413  53.2152 209.9969 0001395  97.6939 262.4211 15.08837309119100,6917.889,95.438,540.719,538.789,0.0
49413.0,STARLINK-3157,PAYLOAD,2023-12-30 20:40:13,15.08837522,0.0001388,53.2152,209.6995,96.0621,264.0529,1.1134e-05,-1.11e-06,0.0,0 STARLINK-3157,1 49413U 21104F   23364.86126239 -.00000111  00000-0  11134-4 0  9992,2 49413  53.2152 209.6995 0001388  96.0621 264.0529 15.08837522118026,6917.888,95.438,540.713,538.793,0.0
49413.0,STARLINK-3157,PAYLOAD,2023-12-31 18:55:34,15.08860302,0.0001279,53.215,205.5361,101.3572,258.7563,0.00016427,2.329e-05,0.0,0 STARLINK-3157,1 49413U 21104F   23365.78859937  .00002329  00000-0  16427-3 0  9993,2 49413  53.2150 205.5361 0001279 101.3572 258.7563 15.08860302119256,6917.818,95.436,540.568,538.799,0.0
49413.0,STARLINK-3157,PAYLOAD,2023-12-31 20:30:58,15.08858882,0.0001327,53.2152,205.2384,101.7103,258.4038,0.00018425,2.647e-05,0.0,0 STARLINK-3157,1 49413U 21104F   23365.85483860  .00002647  00000-0  18425-3 0  9992,2 49413  53.2152 205.2384 0001327 101.7103 258.4038 15.08858882118172,6917.823,95.436,540.606,538.77,0.0
49413.0,STARLINK-3157,PAYLOAD,2024-01-01 12:24:50,15.0884142,0.0001344,53.2148,202.2671,79.9413,280.1731,6.8455e-05,8.02e-06,0.0,0 STARLINK-3157,1 49413U 21104F   24001.51725213  .00000802  00000-0  68455-4 0  9994,2 49413  53.2148 202.2671 0001344  79.9413 280.1731 15.08841420119366,6917.876,95.437,540.671,538.811,0.0
49413.0,STARLINK-3157,PAYLOAD,2024-01-01 14:00:13,15.08838591,0.0001266,53.215,201.9673,98.1902,261.9234,4.3102e-05,3.98e-06,0.0,0 STARLINK-3157,1 49413U 21104F   24001.58349422  .00000398  00000-0  43102-4 0  9997,2 49413  53.2150 201.9673 0001266  98.1902 261.9234 15.08838591118286,6917.885,95.438,540.625,538.874,0.0
49413.0,STARLINK-3157,PAYLOAD,2024-01-01 18:46:23,15.08832837,0.0001167,53.2149,201.0755,96.4073,263.7052,-8.5596e-06,-4.24e-06,0.0,0 STARLINK-3157,1 49413U 21104F   24001.78221947 -.00000424  00000-0 -85596-5 0  9996,2 49413  53.2149 201.0755 0001167  96.4073 263.7052 15.08832837119406,6917.902,95.438,540.575,538.96,0.0
49413.0,STARLINK-3157,PAYLOAD,2024-01-01 23:32:33,15.08830089,0.000114,53.2148,200.1839,90.4066,269.7057,-3.2786e-05,-8.09e-06,0.0,0 STARLINK-3157,1 49413U 21104F   24001.98094287 -.00000809  00000-0 -32786-4 0  9992,2 49413  53.2148 200.1839 0001140  90.4066 269.7057 15.08830089118345,6917.911,95.438,540.564,538.987,0.0
49413.0,STARLINK-3157,PAYLOAD,2024-01-02 18:37:13,15.08820358,0.0001911,53.2159,196.617,45.2085,314.9062,-0.00029122,-4.917e-05,0.0,0 STARLINK-3157,1 49413U 21104F   24002.77584953 -.00004917  00000-0 -29122-3 0  9997,2 49413  53.2159 196.6170 0001911  45.2085 314.9062 15.08820358119550,6917.94,95.439,541.127,538.483,0.0
49413.0,STARLINK-3157,PAYLOAD,2024-01-02 20:12:36,15.08822898,0.0002071,53.2158,196.3199,49.3252,310.792,-0.00027347,-4.636e-05,0.0,0 STARLINK-3157,1 49413U 21104F   24002.84208858 -.00004636  00000-0 -27347-3 0  9997,2 49413  53.2158 196.3199 0002071  49.3252 310.7920 15.08822898118474,6917.933,95.439,541.23,538.365,0.0
49413.0,STARLINK-3157,PAYLOAD,2024-01-03 20:03:22,15.0882942,0.0001381,53.2151,191.8568,76.8802,283.2345,0.00012351,1.678e-05,0.0,0 STARLINK-3157,1 49413U 21104F   24003.83567922  .00001678  00000-0  12351-3 0  9997,2 49413  53.2151 191.8568 0001381  76.8802 283.2345 15.08829420119717,6917.913,95.438,540.733,538.822,0.0
49413.0,STARLINK-3157,PAYLOAD,2024-01-04 11:57:14,15.08822686,0.0001419,53.2157,188.8802,78.8524,281.2628,0.00027223,4.045e-05,0.0,0 STARLINK-3157,1 49413U 21104F   24004.49808754  .00004045  00000-0  27223-3 0  9996,2 49413  53.2157 188.8802 0001419  78.8524 281.2628 15.08822686118724,6917.933,95.439,540.78,538.817,0.0
49413.0,STARLINK-3157,PAYLOAD,2024-01-04 21:29:33,15.08838442,0.0001246,53.215,187.0989,90.18,269.9335,0.00019445,2.808e-05,0.0,0 STARLINK-3157,1 49413U 21104F   24004.89552182  .00002808  00000-0  19445-3 0  9993,2 49413  53.2150 187.0989 0001246  90.1800 269.9335 15.08838442118787,6917.885,95.438,540.612,538.888,0.0
49413.0,STARLINK-3157,PAYLOAD,2024-01-05 11:48:00,15.0884988,0.0001358,53.2154,184.4231,79.2231,280.8914,0.000145,2.021e-05,0.0,0 STARLINK-3157,1 49413U 21104F   24005.49167678  .00002021  00000-0  14500-3 0  9996,2 49413  53.2154 184.4231 0001358  79.2231 280.8914 15.08849880118875,6917.85,95.437,540.655,538.776,0.0
49413.0,STARLINK-3157,PAYLOAD,2024-01-05 18:09:31,15.08873489,0.0001415,53.2152,183.2336,80.2743,279.8409,0.00033335,5.026e-05,0.0,0 STARLINK-3157,1 49413U 21104F   24005.75661477  .00005026  00000-0  33335-3 0  9996,2 49413  53.2152 183.2336 0001415  80.2743 279.8409 15.08873489120007,6917.778,95.435,540.622,538.664,0.0
49413.0,STARLINK-3157,PAYLOAD,2024-01-05 21:20:17,15.08876747,0.0001367,53.2152,182.6383,82.6733,277.4414,0.00035231,5.329e-05,0.0,0 STARLINK-3157,1 49413U 21104F   24005.88908989  .00005329  00000-0  35231-3 0  9995,2 49413  53.2152 182.6383 0001367  82.6733 277.4414 15.08876747118932,6917.768,95.435,540.579,538.687,0.0
